ONEWEB-0634             
1 56075U 23043AF  24185.50298057 -.00003572  00000+0 -95230-2 0  9990
2 56075  87.9029  41.2398 0001273  88.4134 271.7142 13.15565961 63474
ONEWEB-0635             
1 56076U 23043AG  24185.57428241  .00004389  00000+0  11622-1 0  9995
2 56076  87.9024  41.2802 0002163  93.1630 266.9748 13.15525423 63515
ONEWEB-0636             
1 56077U 23043AH  24185.56636786  .00000010  00000+0 -76818-5 0  9990
2 56077  87.9026  41.2515 0002146  88.7957 271.3419 13.15547150 63495
ONEWEB-0637             
1 56078U 23043AJ  24185.56001574 -.00000334  00000+0 -92213-3 0  9997
2 56078  87.9026  41.2294 0002157  91.6315 268.5063 13.15548288 63512
ONEWEB-0647             
1 56079U 23043AK  24185.09891692 -.00000364  00000+0 -10001-2 0  9991
2 56079  87.9025  41.3394 0002118  85.8498 274.2875 13.15547574 62531
ONEWEB-0651             
1 56080U 23043AL  24184.63782061 -.00000078  00000+0 -24196-3 0  9994
2 56080  87.9030  41.4085 0002037  94.5447 265.5916 13.15546723 63678
ONEWEB-0718             
1 56081U 23043AM  24185.16548326 -.00000128  00000+0 -37453-3 0  9994
2 56081  87.9029  41.2895 0001266  78.1032 282.0240 13.15547693 63463
ONEWEB-0561             
1 56710U 23068A   24185.19002073 -.00000071  00000+0 -20765-3 0  9992
2 56710  87.9212  56.5288 0002760  86.3164 273.8285 13.20773300 55952
